{
"type": "FeatureCollection",
"name": "county_smooth_mainland",
"crs": { "type": "name", "properties": { "name": "urn:ogc:def:crs:OGC:1.3:CRS84" } },
"features": [
{ "type": "Feature", "properties": { "COUNTYID": "G", "COUNTYCODE": "10002", "COUNTYNAME": "宜蘭縣", "COUNTYENG": "Yilan County", "layout": "mainland", "is_inset": false, "inset_scale": 1.0, "include_waisanding": false }, "geometry": { "type": "Polygon", "coordinates": [ [ [ 121.966036, 24.983081 ], [ 121.925592, 24.96856 ], [ 121.916273, 24.95186 ], [ 121.887889, 24.93509 ], [ 121.885374, 24.918891 ], [ 121.851362, 24.890114 ], [ 121.830622, 24.850446 ], [ 121.819692, 24.803215 ], [ 121.820986, 24.747694 ], [ 121.836312, 24.708234 ], [ 121.838187, 24.672891 ], [ 121.852125, 24.627999 ], [ 121.885, 24.599608 ], [ 121.869833, 24.576082 ], [ 121.873708, 24.534633 ], [ 121.841913, 24.520247 ], [ 121.840235, 24.498035 ], [ 121.850727, 24.484891 ], [ 121.801864, 24.434337 ], [ 121.791148, 24.40823 ], [ 121.787028, 24.372496 ], [ 121.770891, 24.332587 ], [ 121.774065, 24.315271 ], [ 121.714346, 24.326719 ], [ 121.673983, 24.343396 ], [ 121.630952, 24.370549 ], [ 121.621755, 24.357168 ], [ 121.632972, 24.334963 ], [ 121.599452, 24.333373 ], [ 121.607023, 24.312637 ], [ 121.560085, 24.322635 ], [ 121.556079, 24.331154 ], [ 121.522159, 24.343022 ], [ 121.498121, 24.339234 ], [ 121.452012, 24.36468 ], [ 121.437787, 24.382876 ], [ 121.400595, 24.379584 ], [ 121.373579, 24.368165 ], [ 121.364888, 24.389074 ], [ 121.338481, 24.390054 ], [ 121.324996, 24.406912 ], [ 121.328066, 24.433911 ], [ 121.317665, 24.441489 ], [ 121.342418, 24.481713 ], [ 121.35775, 24.486609 ], [ 121.401634, 24.529238 ], [ 121.39468, 24.555574 ], [ 121.412162, 24.573103 ], [ 121.403046, 24.591707 ], [ 121.427811, 24.606086 ], [ 121.459498, 24.673158 ], [ 121.479996, 24.673849 ], [ 121.536873, 24.688495 ], [ 121.543404, 24.705737 ], [ 121.587688, 24.720329 ], [ 121.595364, 24.739121 ], [ 121.591955, 24.787503 ], [ 121.620438, 24.792554 ], [ 121.63006, 24.808939 ], [ 121.668777, 24.816932 ], [ 121.73263, 24.855816 ], [ 121.760985, 24.856701 ], [ 121.784931, 24.875618 ], [ 121.792511, 24.900001 ], [ 121.83182, 24.904908 ], [ 121.852124, 24.923736 ], [ 121.839847, 24.942203 ], [ 121.847178, 24.960358 ], [ 121.897204, 24.967067 ], [ 121.943931, 24.98794 ], [ 121.966036, 24.983081 ] ] ] } },
{ "type": "Feature", "properties": { "COUNTYID": "N", "COUNTYCODE": "10007", "COUNTYNAME": "彰化縣", "COUNTYENG": "Changhua County", "layout": "mainland", "is_inset": false, "inset_scale": 1.0, "include_waisanding": false }, "geometry": { "type": "Polygon", "coordinates": [ [ [ 120.45656, 24.207183 ], [ 120.504388, 24.191143 ], [ 120.532251, 24.12692 ], [ 120.54969, 24.11388 ], [ 120.612369, 24.102579 ], [ 120.625347, 24.068949 ], [ 120.628658, 24.02962 ], [ 120.655661, 24.030672 ], [ 120.678646, 24.014031 ], [ 120.672581, 24.005847 ], [ 120.641538, 24.008144 ], [ 120.650093, 23.984921 ], [ 120.646853, 23.963377 ], [ 120.628988, 23.949828 ], [ 120.637265, 23.924561 ], [ 120.620136, 23.865704 ], [ 120.618871, 23.841685 ], [ 120.650701, 23.812717 ], [ 120.678819, 23.816295 ], [ 120.666642, 23.79357 ], [ 120.640374, 23.786048 ], [ 120.592593, 23.791067 ], [ 120.550751, 23.801172 ], [ 120.511054, 23.800092 ], [ 120.45197, 23.817283 ], [ 120.43311, 23.830148 ], [ 120.370325, 23.828559 ], [ 120.360115, 23.823257 ], [ 120.308126, 23.820302 ], [ 120.255019, 23.834252 ], [ 120.220362, 23.866219 ], [ 120.23533, 23.88526 ], [ 120.257743, 23.899329 ], [ 120.284021, 23.955782 ], [ 120.306921, 23.972223 ], [ 120.316458, 23.999232 ], [ 120.334142, 24.013939 ], [ 120.342086, 24.060128 ], [ 120.381818, 24.096854 ], [ 120.396833, 24.117493 ], [ 120.416082, 24.16953 ], [ 120.443957, 24.18894 ], [ 120.45656, 24.207183 ] ] ] } },
{ "type": "Feature", "properties": { "COUNTYID": "M", "COUNTYCODE": "10008", "COUNTYNAME": "南投縣", "COUNTYENG": "Nantou County", "layout": "mainland", "is_inset": false, "inset_scale": 1.0, "include_waisanding": false }, "geometry": { "type": "Polygon", "coordinates": [ [ [ 121.34302, 24.223554 ], [ 121.349677, 24.200235 ], [ 121.325765, 24.196173 ], [ 121.305648, 24.180047 ], [ 121.288118, 24.177665 ], [ 121.281369, 24.135873 ], [ 121.315884, 24.116419 ], [ 121.323132, 24.084941 ], [ 121.283208, 24.054267 ], [ 121.285728, 24.039722 ], [ 121.260112, 23.992324 ], [ 121.27791, 23.965833 ], [ 121.266271, 23.907266 ], [ 121.268451, 23.883753 ], [ 121.239767, 23.841051 ], [ 121.228346, 23.785223 ], [ 121.205325, 23.771131 ], [ 121.228815, 23.744284 ], [ 121.241173, 23.709006 ], [ 121.235424, 23.661408 ], [ 121.213121, 23.600083 ], [ 121.194561, 23.600524 ], [ 121.169409, 23.586575 ], [ 121.147657, 23.552943 ], [ 121.146955, 23.527193 ], [ 121.092098, 23.514842 ], [ 121.068522, 23.518475 ], [ 121.06208, 23.49943 ], [ 121.039007, 23.474433 ], [ 121.052065, 23.451012 ], [ 121.015268, 23.43541 ], [ 121.015855, 23.451609 ], [ 120.999693, 23.462167 ], [ 120.957515, 23.469503 ], [ 120.917483, 23.475693 ], [ 120.838973, 23.471218 ], [ 120.827076, 23.483381 ], [ 120.823178, 23.510941 ], [ 120.808611, 23.536185 ], [ 120.820677, 23.56262 ], [ 120.823705, 23.587159 ], [ 120.752936, 23.614848 ], [ 120.730865, 23.610807 ], [ 120.723824, 23.621904 ], [ 120.691543, 23.62039 ], [ 120.661203, 23.61047 ], [ 120.635412, 23.619879 ], [ 120.629077, 23.635165 ], [ 120.646773, 23.672513 ], [ 120.639741, 23.726621 ], [ 120.655973, 23.753762 ], [ 120.640374, 23.786048 ], [ 120.666642, 23.79357 ], [ 120.678819, 23.816295 ], [ 120.650701, 23.812717 ], [ 120.618871, 23.841685 ], [ 120.620136, 23.865704 ], [ 120.637265, 23.924561 ], [ 120.628988, 23.949828 ], [ 120.646853, 23.963377 ], [ 120.650093, 23.984921 ], [ 120.641538, 24.008144 ], [ 120.672581, 24.005847 ], [ 120.678646, 24.014031 ], [ 120.706383, 24.005191 ], [ 120.731731, 24.009003 ], [ 120.746037, 23.998561 ], [ 120.770562, 24.009074 ], [ 120.797251, 24.040941 ], [ 120.806977, 24.064223 ], [ 120.8293, 24.071509 ], [ 120.828526, 24.094486 ], [ 120.84485, 24.124526 ], [ 120.894913, 24.116522 ], [ 120.919882, 24.107441 ], [ 120.950109, 24.127862 ], [ 120.975222, 24.116954 ], [ 120.998624, 24.126913 ], [ 121.015511, 24.156007 ], [ 121.05259, 24.154767 ], [ 121.105685, 24.197214 ], [ 121.135293, 24.196211 ], [ 121.167704, 24.225385 ], [ 121.180739, 24.21228 ], [ 121.219712, 24.22924 ], [ 121.237956, 24.219708 ], [ 121.255073, 24.243219 ], [ 121.277739, 24.231875 ], [ 121.324444, 24.233007 ], [ 121.34302, 24.223554 ] ] ] } },
{ "type": "Feature", "properties": { "COUNTYID": "P", "COUNTYCODE": "10009", "COUNTYNAME": "雲林縣", "COUNTYENG": "Yunlin County", "layout": "mainland", "is_inset": false, "inset_scale": 1.0, "include_waisanding": false }, "geometry": { "type": "Polygon", "coordinates": [ [ [ 120.640374, 23.786048 ], [ 120.655973, 23.753762 ], [ 120.639741, 23.726621 ], [ 120.646773, 23.672513 ], [ 120.629077, 23.635165 ], [ 120.635412, 23.619879 ], [ 120.661203, 23.61047 ], [ 120.691543, 23.62039 ], [ 120.723824, 23.621904 ], [ 120.730865, 23.610807 ], [ 120.733892, 23.58472 ], [ 120.717945, 23.569042 ], [ 120.670772, 23.578476 ], [ 120.650823, 23.572423 ], [ 120.645621, 23.593533 ], [ 120.609804, 23.582609 ], [ 120.576704, 23.583561 ], [ 120.536939, 23.594727 ], [ 120.499492, 23.635063 ], [ 120.422027, 23.619266 ], [ 120.402645, 23.626937 ], [ 120.36651, 23.607806 ], [ 120.356695, 23.594036 ], [ 120.263451, 23.533527 ], [ 120.242039, 23.53869 ], [ 120.246652, 23.51383 ], [ 120.223047, 23.504318 ], [ 120.180978, 23.50985 ], [ 120.145846, 23.520823 ], [ 120.13957, 23.549784 ], [ 120.143307, 23.572127 ], [ 120.13713, 23.620364 ], [ 120.123966, 23.6432 ], [ 120.145381, 23.691939 ], [ 120.146923, 23.706746 ], [ 120.169188, 23.758933 ], [ 120.15697, 23.784447 ], [ 120.207674, 23.837218 ], [ 120.220362, 23.866219 ], [ 120.255019, 23.834252 ], [ 120.308126, 23.820302 ], [ 120.360115, 23.823257 ], [ 120.370325, 23.828559 ], [ 120.43311, 23.830148 ], [ 120.45197, 23.817283 ], [ 120.511054, 23.800092 ], [ 120.550751, 23.801172 ], [ 120.592593, 23.791067 ], [ 120.640374, 23.786048 ] ] ] } },
{ "type": "Feature", "properties": { "COUNTYID": "T", "COUNTYCODE": "10013", "COUNTYNAME": "屏東縣", "COUNTYENG": "Pingtung County", "layout": "mainland", "is_inset": false, "inset_scale": 1.0, "include_waisanding": false }, "geometry": { "type": "Polygon", "coordinates": [ [ [ 120.864565, 22.843081 ], [ 120.868629, 22.816851 ], [ 120.9033, 22.799807 ], [ 120.903859, 22.77581 ], [ 120.89356, 22.766784 ], [ 120.894718, 22.737587 ], [ 120.883511, 22.717067 ], [ 120.848694, 22.716985 ], [ 120.83679, 22.697078 ], [ 120.797673, 22.689101 ], [ 120.786348, 22.662982 ], [ 120.761312, 22.630039 ], [ 120.745758, 22.588319 ], [ 120.739479, 22.551453 ], [ 120.7627, 22.501098 ], [ 120.751608, 22.45841 ], [ 120.775032, 22.444286 ], [ 120.789638, 22.417648 ], [ 120.758116, 22.404903 ], [ 120.747515, 22.371404 ], [ 120.767946, 22.347398 ], [ 120.785057, 22.345523 ], [ 120.79679, 22.318324 ], [ 120.788607, 22.294002 ], [ 120.79819, 22.276461 ], [ 120.839393, 22.24367 ], [ 120.866677, 22.229809 ], [ 120.896295, 22.24643 ], [ 120.898924, 22.229836 ], [ 120.890697, 22.195329 ], [ 120.894216, 22.172631 ], [ 120.887856, 22.133296 ], [ 120.894079, 22.088608 ], [ 120.893656, 22.049729 ], [ 120.901215, 22.034373 ], [ 120.875786, 21.998847 ], [ 120.846071, 21.98621 ], [ 120.842329, 21.949957 ], [ 120.867135, 21.902728 ], [ 120.851136, 21.896357 ], [ 120.822223, 21.934364 ], [ 120.783018, 21.943544 ], [ 120.764684, 21.959129 ], [ 120.748442, 21.949464 ], [ 120.739574, 21.919713 ], [ 120.710576, 21.934113 ], [ 120.713551, 21.980605 ], [ 120.693829, 22.002589 ], [ 120.685234, 22.023901 ], [ 120.704476, 22.056044 ], [ 120.699298, 22.082779 ], [ 120.716847, 22.093252 ], [ 120.672002, 22.233247 ], [ 120.649285, 22.255745 ], [ 120.652096, 22.268239 ], [ 120.636175, 22.31278 ], [ 120.605123, 22.34265 ], [ 120.585574, 22.369387 ], [ 120.549593, 22.392442 ], [ 120.458544, 22.439358 ], [ 120.424434, 22.468713 ], [ 120.422856, 22.518451 ], [ 120.442705, 22.562319 ], [ 120.445789, 22.598829 ], [ 120.433683, 22.617595 ], [ 120.436628, 22.665016 ], [ 120.455741, 22.718493 ], [ 120.453775, 22.761497 ], [ 120.468755, 22.830673 ], [ 120.476237, 22.838185 ], [ 120.509988, 22.828511 ], [ 120.554195, 22.828825 ], [ 120.60582, 22.87321 ], [ 120.645028, 22.885176 ], [ 120.660905, 22.85967 ], [ 120.676722, 22.857254 ], [ 120.704539, 22.880668 ], [ 120.742679, 22.873554 ], [ 120.778711, 22.835204 ], [ 120.822957, 22.865722 ], [ 120.833038, 22.866274 ], [ 120.864565, 22.843081 ] ] ] } },
{ "type": "Feature", "properties": { "COUNTYID": "C", "COUNTYCODE": "10017", "COUNTYNAME": "基隆市", "COUNTYENG": "Keelung City", "layout": "mainland", "is_inset": false, "inset_scale": 1.0, "include_waisanding": false }, "geometry": { "type": "Polygon", "coordinates": [ [ [ 121.803509, 25.136203 ], [ 121.790156, 25.112263 ], [ 121.772974, 25.120107 ], [ 121.756058, 25.108406 ], [ 121.75913, 25.084476 ], [ 121.775703, 25.069997 ], [ 121.762337, 25.05698 ], [ 121.732301, 25.052767 ], [ 121.712369, 25.068034 ], [ 121.688421, 25.071738 ], [ 121.655694, 25.093613 ], [ 121.639573, 25.145683 ], [ 121.677659, 25.155808 ], [ 121.709658, 25.176562 ], [ 121.748502, 25.15625 ], [ 121.765556, 25.163429 ], [ 121.803509, 25.136203 ] ] ] } },
{ "type": "Feature", "properties": { "COUNTYID": "A", "COUNTYCODE": "63000", "COUNTYNAME": "臺北市", "COUNTYENG": "Taipei City", "layout": "mainland", "is_inset": false, "inset_scale": 1.0, "include_waisanding": false }, "geometry": { "type": "Polygon", "coordinates": [ [ [ 121.570989, 25.197165 ], [ 121.583997, 25.188791 ], [ 121.604075, 25.136175 ], [ 121.595601, 25.113274 ], [ 121.615464, 25.10384 ], [ 121.628615, 25.086471 ], [ 121.616462, 25.048148 ], [ 121.650237, 25.027625 ], [ 121.59564, 25.007158 ], [ 121.597077, 24.960503 ], [ 121.561219, 24.96471 ], [ 121.536854, 24.988727 ], [ 121.533867, 25.003602 ], [ 121.509121, 25.021341 ], [ 121.492659, 25.009526 ], [ 121.483642, 25.035299 ], [ 121.501358, 25.045952 ], [ 121.507045, 25.069884 ], [ 121.489103, 25.096857 ], [ 121.457331, 25.107099 ], [ 121.46561, 25.131549 ], [ 121.502734, 25.172791 ], [ 121.542827, 25.188952 ], [ 121.555009, 25.20843 ], [ 121.570989, 25.197165 ] ] ] } },
{ "type": "Feature", "properties": { "COUNTYID": "F", "COUNTYCODE": "65000", "COUNTYNAME": "新北市", "COUNTYENG": "New Taipei City", "layout": "mainland", "is_inset": false, "inset_scale": 1.0, "include_waisanding": false }, "geometry": { "type": "Polygon", "coordinates": [ [ [ 121.709658, 25.176562 ], [ 121.677659, 25.155808 ], [ 121.639573, 25.145683 ], [ 121.655694, 25.093613 ], [ 121.688421, 25.071738 ], [ 121.712369, 25.068034 ], [ 121.732301, 25.052767 ], [ 121.762337, 25.05698 ], [ 121.775703, 25.069997 ], [ 121.75913, 25.084476 ], [ 121.756058, 25.108406 ], [ 121.772974, 25.120107 ], [ 121.790156, 25.112263 ], [ 121.803509, 25.136203 ], [ 121.897074, 25.119694 ], [ 121.921208, 25.121317 ], [ 121.926552, 25.108146 ], [ 121.915361, 25.078079 ], [ 121.931717, 25.063121 ], [ 121.928963, 25.040995 ], [ 121.94711, 25.021062 ], [ 121.973651, 25.026562 ], [ 122.006927, 25.010846 ], [ 121.966036, 24.983081 ], [ 121.943931, 24.98794 ], [ 121.897204, 24.967067 ], [ 121.847178, 24.960358 ], [ 121.839847, 24.942203 ], [ 121.852124, 24.923736 ], [ 121.83182, 24.904908 ], [ 121.792511, 24.900001 ], [ 121.784931, 24.875618 ], [ 121.760985, 24.856701 ], [ 121.73263, 24.855816 ], [ 121.668777, 24.816932 ], [ 121.63006, 24.808939 ], [ 121.620438, 24.792554 ], [ 121.591955, 24.787503 ], [ 121.595364, 24.739121 ], [ 121.587688, 24.720329 ], [ 121.543404, 24.705737 ], [ 121.536873, 24.688495 ], [ 121.479996, 24.673849 ], [ 121.474236, 24.696102 ], [ 121.450356, 24.705577 ], [ 121.423425, 24.763094 ], [ 121.449525, 24.785936 ], [ 121.438267, 24.795338 ], [ 121.415645, 24.835497 ], [ 121.402704, 24.843573 ], [ 121.377895, 24.834483 ], [ 121.357791, 24.839519 ], [ 121.342126, 24.892591 ], [ 121.321262, 24.899943 ], [ 121.317585, 24.916359 ], [ 121.329154, 24.960576 ], [ 121.342716, 24.982302 ], [ 121.368786, 24.976809 ], [ 121.384061, 24.995612 ], [ 121.403237, 24.999328 ], [ 121.386157, 25.063248 ], [ 121.354888, 25.065148 ], [ 121.348941, 25.081215 ], [ 121.30285, 25.096763 ], [ 121.283387, 25.117809 ], [ 121.353451, 25.1316 ], [ 121.389769, 25.147738 ], [ 121.418848, 25.177409 ], [ 121.418936, 25.199269 ], [ 121.435921, 25.217105 ], [ 121.452687, 25.25281 ], [ 121.471575, 25.255991 ], [ 121.480946, 25.270876 ], [ 121.525942, 25.286014 ], [ 121.533765, 25.297064 ], [ 121.560311, 25.291979 ], [ 121.577732, 25.298894 ], [ 121.623126, 25.273905 ], [ 121.633887, 25.240632 ], [ 121.655856, 25.2133 ], [ 121.709658, 25.176562 ] ], [ [ 121.570989, 25.197165 ], [ 121.555009, 25.20843 ], [ 121.542827, 25.188952 ], [ 121.502734, 25.172791 ], [ 121.46561, 25.131549 ], [ 121.457331, 25.107099 ], [ 121.489103, 25.096857 ], [ 121.507045, 25.069884 ], [ 121.501358, 25.045952 ], [ 121.483642, 25.035299 ], [ 121.492659, 25.009526 ], [ 121.509121, 25.021341 ], [ 121.533867, 25.003602 ], [ 121.536854, 24.988727 ], [ 121.561219, 24.96471 ], [ 121.597077, 24.960503 ], [ 121.59564, 25.007158 ], [ 121.650237, 25.027625 ], [ 121.616462, 25.048148 ], [ 121.628615, 25.086471 ], [ 121.615464, 25.10384 ], [ 121.595601, 25.113274 ], [ 121.604075, 25.136175 ], [ 121.583997, 25.188791 ], [ 121.570989, 25.197165 ] ] ] } },
{ "type": "Feature", "properties": { "COUNTYID": "D", "COUNTYCODE": "67000", "COUNTYNAME": "臺南市", "COUNTYENG": "Tainan City", "layout": "mainland", "is_inset": false, "inset_scale": 1.0, "include_waisanding": false }, "geometry": { "type": "Polygon", "coordinates": [ [ [ 120.653445, 23.224538 ], [ 120.636568, 23.190129 ], [ 120.636168, 23.175105 ], [ 120.61663, 23.163135 ], [ 120.588426, 23.123268 ], [ 120.588164, 23.114319 ], [ 120.554497, 23.06883 ], [ 120.530217, 23.055918 ], [ 120.503717, 23.028645 ], [ 120.460853, 23.003936 ], [ 120.445191, 22.979481 ], [ 120.416511, 22.916369 ], [ 120.377532, 22.918208 ], [ 120.353701, 22.89244 ], [ 120.284565, 22.904722 ], [ 120.260535, 22.901755 ], [ 120.220115, 22.909602 ], [ 120.192056, 22.921194 ], [ 120.174749, 22.911704 ], [ 120.172009, 22.949695 ], [ 120.158678, 22.974883 ], [ 120.134745, 22.999432 ], [ 120.08713, 23.032649 ], [ 120.057956, 23.043098 ], [ 120.027898, 23.075171 ], [ 120.035258, 23.102547 ], [ 120.052115, 23.125954 ], [ 120.063504, 23.170945 ], [ 120.077507, 23.200473 ], [ 120.080618, 23.23757 ], [ 120.093367, 23.265378 ], [ 120.096317, 23.299087 ], [ 120.110808, 23.3104 ], [ 120.118078, 23.340162 ], [ 120.166204, 23.308457 ], [ 120.17868, 23.291727 ], [ 120.220874, 23.296 ], [ 120.238088, 23.327073 ], [ 120.255147, 23.330616 ], [ 120.276295, 23.348209 ], [ 120.292956, 23.375378 ], [ 120.311005, 23.385568 ], [ 120.333185, 23.385806 ], [ 120.349524, 23.401322 ], [ 120.381041, 23.403435 ], [ 120.409424, 23.412429 ], [ 120.438362, 23.413386 ], [ 120.490936, 23.39556 ], [ 120.483002, 23.371639 ], [ 120.504836, 23.368902 ], [ 120.503599, 23.351025 ], [ 120.539996, 23.32787 ], [ 120.522607, 23.311885 ], [ 120.522221, 23.273964 ], [ 120.52997, 23.247949 ], [ 120.519037, 23.239256 ], [ 120.554876, 23.217575 ], [ 120.578522, 23.215246 ], [ 120.596886, 23.229738 ], [ 120.653445, 23.224538 ] ] ] } },
{ "type": "Feature", "properties": { "COUNTYID": "H", "COUNTYCODE": "68000", "COUNTYNAME": "桃園市", "COUNTYENG": "Taoyuan City", "layout": "mainland", "is_inset": false, "inset_scale": 1.0, "include_waisanding": false }, "geometry": { "type": "Polygon", "coordinates": [ [ [ 121.283387, 25.117809 ], [ 121.30285, 25.096763 ], [ 121.348941, 25.081215 ], [ 121.354888, 25.065148 ], [ 121.386157, 25.063248 ], [ 121.403237, 24.999328 ], [ 121.384061, 24.995612 ], [ 121.368786, 24.976809 ], [ 121.342716, 24.982302 ], [ 121.329154, 24.960576 ], [ 121.317585, 24.916359 ], [ 121.321262, 24.899943 ], [ 121.342126, 24.892591 ], [ 121.357791, 24.839519 ], [ 121.377895, 24.834483 ], [ 121.402704, 24.843573 ], [ 121.415645, 24.835497 ], [ 121.438267, 24.795338 ], [ 121.449525, 24.785936 ], [ 121.423425, 24.763094 ], [ 121.450356, 24.705577 ], [ 121.474236, 24.696102 ], [ 121.479996, 24.673849 ], [ 121.459498, 24.673158 ], [ 121.427811, 24.606086 ], [ 121.403046, 24.591707 ], [ 121.372783, 24.593747 ], [ 121.358857, 24.617374 ], [ 121.35323, 24.666322 ], [ 121.3294, 24.691325 ], [ 121.299486, 24.695566 ], [ 121.307617, 24.719904 ], [ 121.29812, 24.733232 ], [ 121.307716, 24.754982 ], [ 121.277423, 24.770924 ], [ 121.238244, 24.804653 ], [ 121.221572, 24.799415 ], [ 121.152836, 24.846164 ], [ 121.161384, 24.859469 ], [ 121.15567, 24.880709 ], [ 121.113496, 24.882558 ], [ 121.06142, 24.903807 ], [ 121.055448, 24.93624 ], [ 121.038664, 24.945996 ], [ 120.982033, 24.939974 ], [ 121.011007, 24.978354 ], [ 121.028631, 25.020582 ], [ 121.051964, 25.043522 ], [ 121.125014, 25.076803 ], [ 121.157185, 25.084388 ], [ 121.212081, 25.109957 ], [ 121.25978, 25.123613 ], [ 121.283387, 25.117809 ] ] ] } },
{ "type": "Feature", "properties": { "COUNTYID": "I", "COUNTYCODE": "10020", "COUNTYNAME": "嘉義市", "COUNTYENG": "Chiayi City", "layout": "mainland", "is_inset": false, "inset_scale": 1.0, "include_waisanding": false }, "geometry": { "type": "Polygon", "coordinates": [ [ [ 120.447587, 23.518186 ], [ 120.462625, 23.500735 ], [ 120.483155, 23.505362 ], [ 120.509238, 23.47484 ], [ 120.494913, 23.452782 ], [ 120.468655, 23.461597 ], [ 120.439575, 23.439555 ], [ 120.429298, 23.461041 ], [ 120.415161, 23.460274 ], [ 120.393438, 23.482377 ], [ 120.411989, 23.499015 ], [ 120.447587, 23.518186 ] ] ] } },
{ "type": "Feature", "properties": { "COUNTYID": "Q", "COUNTYCODE": "10010", "COUNTYNAME": "嘉義縣", "COUNTYENG": "Chiayi County", "layout": "mainland", "is_inset": false, "inset_scale": 1.0, "include_waisanding": false }, "geometry": { "type": "Polygon", "coordinates": [ [ [ 120.730865, 23.610807 ], [ 120.752936, 23.614848 ], [ 120.823705, 23.587159 ], [ 120.820677, 23.56262 ], [ 120.808611, 23.536185 ], [ 120.823178, 23.510941 ], [ 120.827076, 23.483381 ], [ 120.838973, 23.471218 ], [ 120.917483, 23.475693 ], [ 120.957515, 23.469503 ], [ 120.928304, 23.456783 ], [ 120.896783, 23.4509 ], [ 120.887094, 23.435203 ], [ 120.849172, 23.419485 ], [ 120.828528, 23.374954 ], [ 120.804695, 23.367211 ], [ 120.783215, 23.342204 ], [ 120.758069, 23.344265 ], [ 120.747856, 23.321909 ], [ 120.712166, 23.308697 ], [ 120.693511, 23.28454 ], [ 120.643744, 23.296097 ], [ 120.638518, 23.268823 ], [ 120.653445, 23.224538 ], [ 120.596886, 23.229738 ], [ 120.578522, 23.215246 ], [ 120.554876, 23.217575 ], [ 120.519037, 23.239256 ], [ 120.52997, 23.247949 ], [ 120.522221, 23.273964 ], [ 120.522607, 23.311885 ], [ 120.539996, 23.32787 ], [ 120.503599, 23.351025 ], [ 120.504836, 23.368902 ], [ 120.483002, 23.371639 ], [ 120.490936, 23.39556 ], [ 120.438362, 23.413386 ], [ 120.409424, 23.412429 ], [ 120.381041, 23.403435 ], [ 120.349524, 23.401322 ], [ 120.333185, 23.385806 ], [ 120.311005, 23.385568 ], [ 120.292956, 23.375378 ], [ 120.276295, 23.348209 ], [ 120.255147, 23.330616 ], [ 120.238088, 23.327073 ], [ 120.220874, 23.296 ], [ 120.17868, 23.291727 ], [ 120.166204, 23.308457 ], [ 120.118078, 23.340162 ], [ 120.13166, 23.384779 ], [ 120.157784, 23.38579 ], [ 120.145512, 23.428596 ], [ 120.14968, 23.454269 ], [ 120.133565, 23.488154 ], [ 120.119429, 23.495486 ], [ 120.118924, 23.515056 ], [ 120.145846, 23.520823 ], [ 120.180978, 23.50985 ], [ 120.223047, 23.504318 ], [ 120.246652, 23.51383 ], [ 120.242039, 23.53869 ], [ 120.263451, 23.533527 ], [ 120.356695, 23.594036 ], [ 120.36651, 23.607806 ], [ 120.402645, 23.626937 ], [ 120.422027, 23.619266 ], [ 120.499492, 23.635063 ], [ 120.536939, 23.594727 ], [ 120.576704, 23.583561 ], [ 120.609804, 23.582609 ], [ 120.645621, 23.593533 ], [ 120.650823, 23.572423 ], [ 120.670772, 23.578476 ], [ 120.717945, 23.569042 ], [ 120.733892, 23.58472 ], [ 120.730865, 23.610807 ] ], [ [ 120.447587, 23.518186 ], [ 120.411989, 23.499015 ], [ 120.393438, 23.482377 ], [ 120.415161, 23.460274 ], [ 120.429298, 23.461041 ], [ 120.439575, 23.439555 ], [ 120.468655, 23.461597 ], [ 120.494913, 23.452782 ], [ 120.509238, 23.47484 ], [ 120.483155, 23.505362 ], [ 120.462625, 23.500735 ], [ 120.447587, 23.518186 ] ] ] } },
{ "type": "Feature", "properties": { "COUNTYID": "E", "COUNTYCODE": "64000", "COUNTYNAME": "高雄市", "COUNTYENG": "Kaohsiung City", "layout": "mainland", "is_inset": false, "inset_scale": 1.0, "include_waisanding": false }, "geometry": { "type": "Polygon", "coordinates": [ [ [ 121.015268, 23.43541 ], [ 121.029248, 23.42279 ], [ 121.025971, 23.40293 ], [ 121.001133, 23.391745 ], [ 120.988111, 23.370676 ], [ 121.010404, 23.345814 ], [ 121.048164, 23.325883 ], [ 121.046444, 23.309113 ], [ 121.028324, 23.297122 ], [ 120.986085, 23.280323 ], [ 120.97028, 23.280606 ], [ 120.937897, 23.244949 ], [ 120.915461, 23.23751 ], [ 120.895004, 23.160718 ], [ 120.8766, 23.150945 ], [ 120.887871, 23.136375 ], [ 120.889151, 23.100492 ], [ 120.869314, 23.059926 ], [ 120.881259, 23.044196 ], [ 120.863428, 23.032261 ], [ 120.860657, 23.00805 ], [ 120.832225, 22.980061 ], [ 120.82092, 22.960949 ], [ 120.828535, 22.905208 ], [ 120.84198, 22.881218 ], [ 120.859727, 22.878368 ], [ 120.869432, 22.857954 ], [ 120.864565, 22.843081 ], [ 120.833038, 22.866274 ], [ 120.822957, 22.865722 ], [ 120.778711, 22.835204 ], [ 120.742679, 22.873554 ], [ 120.704539, 22.880668 ], [ 120.676722, 22.857254 ], [ 120.660905, 22.85967 ], [ 120.645028, 22.885176 ], [ 120.60582, 22.87321 ], [ 120.554195, 22.828825 ], [ 120.509988, 22.828511 ], [ 120.476237, 22.838185 ], [ 120.468755, 22.830673 ], [ 120.453775, 22.761497 ], [ 120.455741, 22.718493 ], [ 120.436628, 22.665016 ], [ 120.433683, 22.617595 ], [ 120.445789, 22.598829 ], [ 120.442705, 22.562319 ], [ 120.422856, 22.518451 ], [ 120.424434, 22.468713 ], [ 120.401856, 22.473885 ], [ 120.321833, 22.527791 ], [ 120.302838, 22.55777 ], [ 120.263773, 22.601902 ], [ 120.263328, 22.624098 ], [ 120.249947, 22.650727 ], [ 120.264456, 22.67521 ], [ 120.256273, 22.717294 ], [ 120.205983, 22.820154 ], [ 120.174749, 22.911704 ], [ 120.192056, 22.921194 ], [ 120.220115, 22.909602 ], [ 120.260535, 22.901755 ], [ 120.284565, 22.904722 ], [ 120.353701, 22.89244 ], [ 120.377532, 22.918208 ], [ 120.416511, 22.916369 ], [ 120.445191, 22.979481 ], [ 120.460853, 23.003936 ], [ 120.503717, 23.028645 ], [ 120.530217, 23.055918 ], [ 120.554497, 23.06883 ], [ 120.588164, 23.114319 ], [ 120.588426, 23.123268 ], [ 120.61663, 23.163135 ], [ 120.636168, 23.175105 ], [ 120.636568, 23.190129 ], [ 120.653445, 23.224538 ], [ 120.638518, 23.268823 ], [ 120.643744, 23.296097 ], [ 120.693511, 23.28454 ], [ 120.712166, 23.308697 ], [ 120.747856, 23.321909 ], [ 120.758069, 23.344265 ], [ 120.783215, 23.342204 ], [ 120.804695, 23.367211 ], [ 120.828528, 23.374954 ], [ 120.849172, 23.419485 ], [ 120.887094, 23.435203 ], [ 120.896783, 23.4509 ], [ 120.928304, 23.456783 ], [ 120.957515, 23.469503 ], [ 120.999693, 23.462167 ], [ 121.015855, 23.451609 ], [ 121.015268, 23.43541 ] ] ] } },
{ "type": "Feature", "properties": { "COUNTYID": "V", "COUNTYCODE": "10014", "COUNTYNAME": "臺東縣", "COUNTYENG": "Taitung County", "layout": "mainland", "is_inset": false, "inset_scale": 1.0, "include_waisanding": false }, "geometry": { "type": "Polygon", "coordinates": [ [ [ 121.496092, 23.434826 ], [ 121.474856, 23.386625 ], [ 121.472205, 23.352431 ], [ 121.462026, 23.312539 ], [ 121.44701, 23.308887 ], [ 121.43287, 23.288131 ], [ 121.414897, 23.234928 ], [ 121.398133, 23.207966 ], [ 121.407585, 23.162285 ], [ 121.399797, 23.135119 ], [ 121.411153, 23.123979 ], [ 121.382941, 23.095492 ], [ 121.366136, 23.096167 ], [ 121.355082, 23.079658 ], [ 121.33637, 23.019317 ], [ 121.316487, 22.981237 ], [ 121.278888, 22.931558 ], [ 121.236126, 22.867903 ], [ 121.209041, 22.863095 ], [ 121.191485, 22.849685 ], [ 121.187489, 22.829277 ], [ 121.200993, 22.796049 ], [ 121.181398, 22.782904 ], [ 121.176992, 22.7601 ], [ 121.128108, 22.719362 ], [ 121.081356, 22.698198 ], [ 121.039334, 22.670336 ], [ 121.022283, 22.64923 ], [ 121.00916, 22.58896 ], [ 120.985612, 22.569456 ], [ 120.959361, 22.504757 ], [ 120.944367, 22.451863 ], [ 120.91487, 22.384924 ], [ 120.908826, 22.359196 ], [ 120.894911, 22.334661 ], [ 120.891868, 22.27749 ], [ 120.896295, 22.24643 ], [ 120.866677, 22.229809 ], [ 120.839393, 22.24367 ], [ 120.79819, 22.276461 ], [ 120.788607, 22.294002 ], [ 120.79679, 22.318324 ], [ 120.785057, 22.345523 ], [ 120.767946, 22.347398 ], [ 120.747515, 22.371404 ], [ 120.758116, 22.404903 ], [ 120.789638, 22.417648 ], [ 120.775032, 22.444286 ], [ 120.751608, 22.45841 ], [ 120.7627, 22.501098 ], [ 120.739479, 22.551453 ], [ 120.745758, 22.588319 ], [ 120.761312, 22.630039 ], [ 120.786348, 22.662982 ], [ 120.797673, 22.689101 ], [ 120.83679, 22.697078 ], [ 120.848694, 22.716985 ], [ 120.883511, 22.717067 ], [ 120.894718, 22.737587 ], [ 120.89356, 22.766784 ], [ 120.903859, 22.77581 ], [ 120.9033, 22.799807 ], [ 120.868629, 22.816851 ], [ 120.864565, 22.843081 ], [ 120.869432, 22.857954 ], [ 120.859727, 22.878368 ], [ 120.84198, 22.881218 ], [ 120.828535, 22.905208 ], [ 120.82092, 22.960949 ], [ 120.832225, 22.980061 ], [ 120.860657, 23.00805 ], [ 120.863428, 23.032261 ], [ 120.881259, 23.044196 ], [ 120.869314, 23.059926 ], [ 120.889151, 23.100492 ], [ 120.887871, 23.136375 ], [ 120.8766, 23.150945 ], [ 120.895004, 23.160718 ], [ 120.915461, 23.23751 ], [ 120.937897, 23.244949 ], [ 120.97028, 23.280606 ], [ 120.986085, 23.280323 ], [ 121.028324, 23.297122 ], [ 121.056315, 23.290299 ], [ 121.070044, 23.248756 ], [ 121.083636, 23.232964 ], [ 121.129395, 23.223298 ], [ 121.139858, 23.201527 ], [ 121.175628, 23.210187 ], [ 121.189504, 23.203717 ], [ 121.212057, 23.145235 ], [ 121.249403, 23.13142 ], [ 121.264327, 23.104054 ], [ 121.315955, 23.110471 ], [ 121.324396, 23.148979 ], [ 121.317497, 23.164369 ], [ 121.334931, 23.177933 ], [ 121.359495, 23.252813 ], [ 121.377917, 23.26962 ], [ 121.376295, 23.295767 ], [ 121.40976, 23.345946 ], [ 121.400008, 23.385215 ], [ 121.419572, 23.419415 ], [ 121.446042, 23.443549 ], [ 121.496092, 23.434826 ] ] ] } },
{ "type": "Feature", "properties": { "COUNTYID": "U", "COUNTYCODE": "10015", "COUNTYNAME": "花蓮縣", "COUNTYENG": "Hualien County", "layout": "mainland", "is_inset": false, "inset_scale": 1.0, "include_waisanding": false }, "geometry": { "type": "Polygon", "coordinates": [ [ [ 121.774065, 24.315271 ], [ 121.748163, 24.27989 ], [ 121.744111, 24.261291 ], [ 121.716966, 24.242776 ], [ 121.706133, 24.225608 ], [ 121.672174, 24.205788 ], [ 121.658479, 24.171878 ], [ 121.663758, 24.134515 ], [ 121.619127, 24.089582 ], [ 121.616492, 24.061456 ], [ 121.630534, 24.030259 ], [ 121.647917, 24.008949 ], [ 121.628284, 23.969473 ], [ 121.606908, 23.952771 ], [ 121.611872, 23.933328 ], [ 121.598237, 23.857019 ], [ 121.576528, 23.810906 ], [ 121.572452, 23.756613 ], [ 121.549288, 23.711776 ], [ 121.553364, 23.698348 ], [ 121.543764, 23.65601 ], [ 121.531228, 23.626475 ], [ 121.529962, 23.596131 ], [ 121.51134, 23.551487 ], [ 121.503566, 23.517446 ], [ 121.51395, 23.487156 ], [ 121.496092, 23.434826 ], [ 121.446042, 23.443549 ], [ 121.419572, 23.419415 ], [ 121.400008, 23.385215 ], [ 121.40976, 23.345946 ], [ 121.376295, 23.295767 ], [ 121.377917, 23.26962 ], [ 121.359495, 23.252813 ], [ 121.334931, 23.177933 ], [ 121.317497, 23.164369 ], [ 121.324396, 23.148979 ], [ 121.315955, 23.110471 ], [ 121.264327, 23.104054 ], [ 121.249403, 23.13142 ], [ 121.212057, 23.145235 ], [ 121.189504, 23.203717 ], [ 121.175628, 23.210187 ], [ 121.139858, 23.201527 ], [ 121.129395, 23.223298 ], [ 121.083636, 23.232964 ], [ 121.070044, 23.248756 ], [ 121.056315, 23.290299 ], [ 121.028324, 23.297122 ], [ 121.046444, 23.309113 ], [ 121.048164, 23.325883 ], [ 121.010404, 23.345814 ], [ 120.988111, 23.370676 ], [ 121.001133, 23.391745 ], [ 121.025971, 23.40293 ], [ 121.029248, 23.42279 ], [ 121.015268, 23.43541 ], [ 121.052065, 23.451012 ], [ 121.039007, 23.474433 ], [ 121.06208, 23.49943 ], [ 121.068522, 23.518475 ], [ 121.092098, 23.514842 ], [ 121.146955, 23.527193 ], [ 121.147657, 23.552943 ], [ 121.169409, 23.586575 ], [ 121.194561, 23.600524 ], [ 121.213121, 23.600083 ], [ 121.235424, 23.661408 ], [ 121.241173, 23.709006 ], [ 121.228815, 23.744284 ], [ 121.205325, 23.771131 ], [ 121.228346, 23.785223 ], [ 121.239767, 23.841051 ], [ 121.268451, 23.883753 ], [ 121.266271, 23.907266 ], [ 121.27791, 23.965833 ], [ 121.260112, 23.992324 ], [ 121.285728, 24.039722 ], [ 121.283208, 24.054267 ], [ 121.323132, 24.084941 ], [ 121.315884, 24.116419 ], [ 121.281369, 24.135873 ], [ 121.288118, 24.177665 ], [ 121.305648, 24.180047 ], [ 121.325765, 24.196173 ], [ 121.349677, 24.200235 ], [ 121.34302, 24.223554 ], [ 121.367024, 24.252174 ], [ 121.385125, 24.255124 ], [ 121.380474, 24.27948 ], [ 121.423234, 24.308216 ], [ 121.434948, 24.322562 ], [ 121.435618, 24.347246 ], [ 121.452012, 24.36468 ], [ 121.498121, 24.339234 ], [ 121.522159, 24.343022 ], [ 121.556079, 24.331154 ], [ 121.560085, 24.322635 ], [ 121.607023, 24.312637 ], [ 121.599452, 24.333373 ], [ 121.632972, 24.334963 ], [ 121.621755, 24.357168 ], [ 121.630952, 24.370549 ], [ 121.673983, 24.343396 ], [ 121.714346, 24.326719 ], [ 121.774065, 24.315271 ] ] ] } },
{ "type": "Feature", "properties": { "COUNTYID": "O", "COUNTYCODE": "10018", "COUNTYNAME": "新竹市", "COUNTYENG": "Hsinchu City", "layout": "mainland", "is_inset": false, "inset_scale": 1.0, "include_waisanding": false }, "geometry": { "type": "Polygon", "coordinates": [ [ [ 120.935428, 24.712594 ], [ 120.897236, 24.733364 ], [ 120.874537, 24.73832 ], [ 120.893193, 24.76136 ], [ 120.892113, 24.791934 ], [ 120.902814, 24.824068 ], [ 120.925229, 24.854811 ], [ 120.955292, 24.834361 ], [ 121.000391, 24.822059 ], [ 121.018159, 24.807348 ], [ 121.032406, 24.761691 ], [ 120.995985, 24.779984 ], [ 120.98833, 24.768454 ], [ 120.94615, 24.745279 ], [ 120.935428, 24.712594 ] ] ] } },
{ "type": "Feature", "properties": { "COUNTYID": "B", "COUNTYCODE": "66000", "COUNTYNAME": "臺中市", "COUNTYENG": "Taichung City", "layout": "mainland", "is_inset": false, "inset_scale": 1.0, "include_waisanding": false }, "geometry": { "type": "Polygon", "coordinates": [ [ [ 121.452012, 24.36468 ], [ 121.435618, 24.347246 ], [ 121.434948, 24.322562 ], [ 121.423234, 24.308216 ], [ 121.380474, 24.27948 ], [ 121.385125, 24.255124 ], [ 121.367024, 24.252174 ], [ 121.34302, 24.223554 ], [ 121.324444, 24.233007 ], [ 121.277739, 24.231875 ], [ 121.255073, 24.243219 ], [ 121.237956, 24.219708 ], [ 121.219712, 24.22924 ], [ 121.180739, 24.21228 ], [ 121.167704, 24.225385 ], [ 121.135293, 24.196211 ], [ 121.105685, 24.197214 ], [ 121.05259, 24.154767 ], [ 121.015511, 24.156007 ], [ 120.998624, 24.126913 ], [ 120.975222, 24.116954 ], [ 120.950109, 24.127862 ], [ 120.919882, 24.107441 ], [ 120.894913, 24.116522 ], [ 120.84485, 24.124526 ], [ 120.828526, 24.094486 ], [ 120.8293, 24.071509 ], [ 120.806977, 24.064223 ], [ 120.797251, 24.040941 ], [ 120.770562, 24.009074 ], [ 120.746037, 23.998561 ], [ 120.731731, 24.009003 ], [ 120.706383, 24.005191 ], [ 120.678646, 24.014031 ], [ 120.655661, 24.030672 ], [ 120.628658, 24.02962 ], [ 120.625347, 24.068949 ], [ 120.612369, 24.102579 ], [ 120.54969, 24.11388 ], [ 120.532251, 24.12692 ], [ 120.504388, 24.191143 ], [ 120.45656, 24.207183 ], [ 120.476329, 24.22433 ], [ 120.523751, 24.315778 ], [ 120.559208, 24.349796 ], [ 120.561404, 24.359542 ], [ 120.621861, 24.440287 ], [ 120.639665, 24.427766 ], [ 120.691966, 24.368281 ], [ 120.730406, 24.351808 ], [ 120.758511, 24.32865 ], [ 120.805514, 24.315964 ], [ 120.833565, 24.290472 ], [ 120.874904, 24.294894 ], [ 120.904535, 24.292227 ], [ 120.922447, 24.303595 ], [ 120.917012, 24.335723 ], [ 120.935644, 24.342915 ], [ 120.991028, 24.329763 ], [ 121.004718, 24.33196 ], [ 121.035292, 24.297179 ], [ 121.073427, 24.322307 ], [ 121.086609, 24.317601 ], [ 121.12206, 24.33635 ], [ 121.14096, 24.359643 ], [ 121.167981, 24.360729 ], [ 121.190236, 24.381622 ], [ 121.231355, 24.383684 ], [ 121.243897, 24.420076 ], [ 121.260218, 24.429009 ], [ 121.30571, 24.432648 ], [ 121.317665, 24.441489 ], [ 121.328066, 24.433911 ], [ 121.324996, 24.406912 ], [ 121.338481, 24.390054 ], [ 121.364888, 24.389074 ], [ 121.373579, 24.368165 ], [ 121.400595, 24.379584 ], [ 121.437787, 24.382876 ], [ 121.452012, 24.36468 ] ] ] } },
{ "type": "Feature", "properties": { "COUNTYID": "K", "COUNTYCODE": "10005", "COUNTYNAME": "苗栗縣", "COUNTYENG": "Miaoli County", "layout": "mainland", "is_inset": false, "inset_scale": 1.0, "include_waisanding": false }, "geometry": { "type": "Polygon", "coordinates": [ [ [ 120.935428, 24.712594 ], [ 120.973879, 24.711821 ], [ 120.965171, 24.688107 ], [ 121.014388, 24.64085 ], [ 121.073795, 24.613197 ], [ 121.083034, 24.589759 ], [ 121.062191, 24.556154 ], [ 121.080243, 24.541444 ], [ 121.067027, 24.522982 ], [ 121.072063, 24.498413 ], [ 121.097754, 24.496382 ], [ 121.1237, 24.510075 ], [ 121.169138, 24.502588 ], [ 121.213978, 24.51478 ], [ 121.218673, 24.498262 ], [ 121.258092, 24.463241 ], [ 121.260218, 24.429009 ], [ 121.243897, 24.420076 ], [ 121.231355, 24.383684 ], [ 121.190236, 24.381622 ], [ 121.167981, 24.360729 ], [ 121.14096, 24.359643 ], [ 121.12206, 24.33635 ], [ 121.086609, 24.317601 ], [ 121.073427, 24.322307 ], [ 121.035292, 24.297179 ], [ 121.004718, 24.33196 ], [ 120.991028, 24.329763 ], [ 120.935644, 24.342915 ], [ 120.917012, 24.335723 ], [ 120.922447, 24.303595 ], [ 120.904535, 24.292227 ], [ 120.874904, 24.294894 ], [ 120.833565, 24.290472 ], [ 120.805514, 24.315964 ], [ 120.758511, 24.32865 ], [ 120.730406, 24.351808 ], [ 120.691966, 24.368281 ], [ 120.639665, 24.427766 ], [ 120.621861, 24.440287 ], [ 120.658494, 24.477302 ], [ 120.684682, 24.521387 ], [ 120.715813, 24.600971 ], [ 120.755953, 24.631472 ], [ 120.757695, 24.64152 ], [ 120.788595, 24.667 ], [ 120.82306, 24.672675 ], [ 120.856172, 24.702504 ], [ 120.874537, 24.73832 ], [ 120.897236, 24.733364 ], [ 120.935428, 24.712594 ] ] ] } },
{ "type": "Feature", "properties": { "COUNTYID": "J", "COUNTYCODE": "10004", "COUNTYNAME": "新竹縣", "COUNTYENG": "Hsinchu County", "layout": "mainland", "is_inset": false, "inset_scale": 1.0, "include_waisanding": false }, "geometry": { "type": "Polygon", "coordinates": [ [ [ 121.403046, 24.591707 ], [ 121.412162, 24.573103 ], [ 121.39468, 24.555574 ], [ 121.401634, 24.529238 ], [ 121.35775, 24.486609 ], [ 121.342418, 24.481713 ], [ 121.317665, 24.441489 ], [ 121.30571, 24.432648 ], [ 121.260218, 24.429009 ], [ 121.258092, 24.463241 ], [ 121.218673, 24.498262 ], [ 121.213978, 24.51478 ], [ 121.169138, 24.502588 ], [ 121.1237, 24.510075 ], [ 121.097754, 24.496382 ], [ 121.072063, 24.498413 ], [ 121.067027, 24.522982 ], [ 121.080243, 24.541444 ], [ 121.062191, 24.556154 ], [ 121.083034, 24.589759 ], [ 121.073795, 24.613197 ], [ 121.014388, 24.64085 ], [ 120.965171, 24.688107 ], [ 120.973879, 24.711821 ], [ 120.935428, 24.712594 ], [ 120.94615, 24.745279 ], [ 120.98833, 24.768454 ], [ 120.995985, 24.779984 ], [ 121.032406, 24.761691 ], [ 121.018159, 24.807348 ], [ 121.000391, 24.822059 ], [ 120.955292, 24.834361 ], [ 120.925229, 24.854811 ], [ 120.939256, 24.86718 ], [ 120.969673, 24.928465 ], [ 120.982033, 24.939974 ], [ 121.038664, 24.945996 ], [ 121.055448, 24.93624 ], [ 121.06142, 24.903807 ], [ 121.113496, 24.882558 ], [ 121.15567, 24.880709 ], [ 121.161384, 24.859469 ], [ 121.152836, 24.846164 ], [ 121.221572, 24.799415 ], [ 121.238244, 24.804653 ], [ 121.277423, 24.770924 ], [ 121.307716, 24.754982 ], [ 121.29812, 24.733232 ], [ 121.307617, 24.719904 ], [ 121.299486, 24.695566 ], [ 121.3294, 24.691325 ], [ 121.35323, 24.666322 ], [ 121.358857, 24.617374 ], [ 121.372783, 24.593747 ], [ 121.403046, 24.591707 ] ] ] } }
]
}
